FENGYUN 1C DEB          
1 29762U 99025BC  17345.69184010  .00000068  00000-0  43098-4 0  9992
2 29762  98.6520  22.3527 0213590 161.8672 316.7938 14.19055207564668
